IXPE                    
1 49954U 21121A   24113.91668981  .00010732  00000+0  82777-3 0  9993
2 49954   0.2293  83.2701 0009411 179.7551 165.1588 14.97427409  4599
